start=new Date('2022-09-02T00:00:00.000Z').valueOf();
sats=[{"RA_OF_ASC_NODE":"126.6858","REF_FRAME":"TEME","COUNTRY_CODE":"US","MEAN_MOTION_DDOT":"0.0000000000000","TLE_LINE2":"2 52587  53.2178 126.6858 0002376  56.5914 213.2803 15.08835709  1308","OBJECT_TYPE":"PAYLOAD","LAUNCH_DATE":"2022-05-13","TIME_SYSTEM":"UTC","GP_ID":"211505865","PERIOD":"95.438","CENTER_NAME":"EARTH","EPHEMERIS_TYPE":"0","APOAPSIS":"541.402","EPOCH":"2022-09-01T22:00:00.999936","INCLINATION":"53.2178","NORAD_CAT_ID":"52587","SEMIMAJOR_AXIS":"6917.894","MEAN_ANOMALY":"213.2803","MEAN_MOTION":"15.08835709","OBJECT_NAME":"STARLINK-3867","DECAY_DATE":null,"TLE_LINE1":"1 52587U 22051BD  22244.91667824 -.00012537  00000-0 -77100-3 0  9992","ARG_OF_PERICENTER":"56.5914","REV_AT_EPOCH":"130","SITE":"AFWTR","PERIAPSIS":"538.115","MEAN_ELEMENT_THEORY":"SGP4","FILE":"3554009","MEAN_MOTION_DOT":"-0.00012537","OBJECT_ID":"2022-051BD","ELEMENT_SET_NO":"999","CLASSIFICATION_TYPE":"U","ECCENTRICITY":"0.00023760","BSTAR":"-0.00077100000000","RCS_SIZE":"LARGE"},{"ECCENTRICITY":"0.00021730","BSTAR":"-0.00080971000000","CLASSIFICATION_TYPE":"U","RCS_SIZE":"LARGE","ELEMENT_SET_NO":"999","OBJECT_ID":"2022-051BE","MEAN_MOTION_DOT":"-0.00013151","PERIAPSIS":"538.255","MEAN_ELEMENT_THEORY":"SGP4","FILE":"3554009","OBJECT_NAME":"STARLINK-3917","ARG_OF_PERICENTER":"69.7282","TLE_LINE1":"1 52588U 22051BE  22244.91667824 -.00013151  00000-0 -80971-3 0  9996","REV_AT_EPOCH":"130","SITE":"AFWTR","DECAY_DATE":null,"SEMIMAJOR_AXIS":"6917.894","NORAD_CAT_ID":"52588","MEAN_ANOMALY":"220.1490","MEAN_MOTION":"15.08835696","CENTER_NAME":"EARTH","EPHEMERIS_TYPE":"0","PERIOD":"95.438","EPOCH":"2022-09-01T22:00:00.999936","INCLINATION":"53.2182","APOAPSIS":"541.262","OBJECT_TYPE":"PAYLOAD","GP_ID":"211506150","LAUNCH_DATE":"2022-05-13","TIME_SYSTEM":"UTC","RA_OF_ASC_NODE":"126.6875","REF_FRAME":"TEME","COUNTRY_CODE":"US","TLE_LINE2":"2 52588  53.2182 126.6875 0002173  69.7282 220.1490 15.08835696  1306","MEAN_MOTION_DDOT":"0.0000000000000"},{"ELEMENT_SET_NO":"999","CLASSIFICATION_TYPE":"U","BSTAR":"0.00107640000000","ECCENTRICITY":"0.00015760","RCS_SIZE":"LARGE","OBJECT_NAME":"STARLINK-4019","DECAY_DATE":null,"REV_AT_EPOCH":"130","SITE":"AFETR","ARG_OF_PERICENTER":"53.7205","TLE_LINE1":"1 52598U 22052A   22244.91667824  .00016881  00000-0  10764-2 0  9991","FILE":"3554009","MEAN_ELEMENT_THEORY":"SGP4","PERIAPSIS":"538.679","OBJECT_ID":"2022-052A","MEAN_MOTION_DOT":"0.00016881","PERIOD":"95.438","EPHEMERIS_TYPE":"0","CENTER_NAME":"EARTH","APOAPSIS":"540.859","EPOCH":"2022-09-01T22:00:00.999936","INCLINATION":"53.2149","NORAD_CAT_ID":"52598","SEMIMAJOR_AXIS":"6917.904","MEAN_MOTION":"15.08832317","MEAN_ANOMALY":"28.6361","COUNTRY_CODE":"US","RA_OF_ASC_NODE":"291.6869","REF_FRAME":"TEME","MEAN_MOTION_DDOT":"0.0000000000000","TLE_LINE2":"2 52598  53.2149 291.6869 0001576  53.7205  28.6361 15.08832317  1305","OBJECT_TYPE":"PAYLOAD","TIME_SYSTEM":"UTC","LAUNCH_DATE":"2022-05-14","GP_ID":"211506865"},{"RCS_SIZE":"LARGE","BSTAR":"0.00145820000000","ECCENTRICITY":"0.00017680","CLASSIFICATION_TYPE":"U","ELEMENT_SET_NO":"999","OBJECT_ID":"2022-052B","MEAN_MOTION_DOT":"0.00022982","PERIAPSIS":"538.587","MEAN_ELEMENT_THEORY":"SGP4","FILE":"3554009","TLE_LINE1":"1 52599U 22052B   22244.91667824  .00022982  00000-0  14582-2 0  9993","ARG_OF_PERICENTER":"46.7548","SITE":"AFETR","REV_AT_EPOCH":"130","DECAY_DATE":null,"OBJECT_NAME":"STARLINK-4024","MEAN_ANOMALY":"157.9428","MEAN_MOTION":"15.08818716","SEMIMAJOR_AXIS":"6917.945","NORAD_CAT_ID":"52599","INCLINATION":"53.2148","EPOCH":"2022-09-01T22:00:00.999936","APOAPSIS":"541.034","CENTER_NAME":"EARTH","EPHEMERIS_TYPE":"0","PERIOD":"95.439","GP_ID":"211505866","LAUNCH_DATE":"2022-05-14","TIME_SYSTEM":"UTC","OBJECT_TYPE":"PAYLOAD","TLE_LINE2":"2 52599  53.2148 286.6800 0001768  46.7548 157.9428 15.08818716  1306","MEAN_MOTION_DDOT":"0.0000000000000","RA_OF_ASC_NODE":"286.6800","REF_FRAME":"TEME","COUNTRY_CODE":"US"},{"CLASSIFICATION_TYPE":"U","ECCENTRICITY":"0.00017910","BSTAR":"0.00156910000000","RCS_SIZE":"LARGE","ELEMENT_SET_NO":"999","FILE":"3554009","MEAN_ELEMENT_THEORY":"SGP4","PERIAPSIS":"538.534","MEAN_MOTION_DOT":"0.00024766","OBJECT_ID":"2022-052C","OBJECT_NAME":"STARLINK-4026","DECAY_DATE":null,"SITE":"AFETR","REV_AT_EPOCH":"130","TLE_LINE1":"1 52600U 22052C   22244.91667824  .00024766  00000-0  15691-2 0  9990","ARG_OF_PERICENTER":"51.8382","NORAD_CAT_ID":"52600","SEMIMAJOR_AXIS":"6917.908","MEAN_MOTION":"15.08831020","MEAN_ANOMALY":"217.9942","PERIOD":"95.438","EPHEMERIS_TYPE":"0","CENTER_NAME":"EARTH","APOAPSIS":"541.012","EPOCH":"2022-09-01T22:00:00.999936","INCLINATION":"53.2169","OBJECT_TYPE":"PAYLOAD","TIME_SYSTEM":"UTC","LAUNCH_DATE":"2022-05-14","GP_ID":"211506151","COUNTRY_CODE":"US","RA_OF_ASC_NODE":"286.6808","REF_FRAME":"TEME","MEAN_MOTION_DDOT":"0.0000000000000","TLE_LINE2":"2 52600  53.2169 286.6808 0001791  51.8382 217.9942 15.08831020  1300"},{"NORAD_CAT_ID":"52601","SEMIMAJOR_AXIS":"6917.962","MEAN_MOTION":"15.08813423","MEAN_ANOMALY":"180.0239","PERIOD":"95.439","EPHEMERIS_TYPE":"0","CENTER_NAME":"EARTH","APOAPSIS":"541.012","INCLINATION":"53.2145","EPOCH":"2022-09-01T22:00:00.999936","OBJECT_TYPE":"PAYLOAD","TIME_SYSTEM":"UTC","LAUNCH_DATE":"2022-05-14","GP_ID":"211506009","COUNTRY_CODE":"US","RA_OF_ASC_NODE":"286.6822","REF_FRAME":"TEME","MEAN_MOTION_DDOT":"0.0000000000000","TLE_LINE2":"2 52601  53.2145 286.6822 0001713  49.8107 180.0239 15.08813423  1303","CLASSIFICATION_TYPE":"U","ECCENTRICITY":"0.00017130","BSTAR":"0.00147970000000","RCS_SIZE":"LARGE","ELEMENT_SET_NO":"999","MEAN_ELEMENT_THEORY":"SGP4","FILE":"3554009","PERIAPSIS":"538.642","MEAN_MOTION_DOT":"0.00023323","OBJECT_ID":"2022-052D","OBJECT_NAME":"STARLINK-4027","DECAY_DATE":null,"SITE":"AFETR","REV_AT_EPOCH":"130","TLE_LINE1":"1 52601U 22052D   22244.91667824  .00023323  00000-0  14797-2 0  9995","ARG_OF_PERICENTER":"49.8107"},{"RCS_SIZE":"LARGE","BSTAR":"0.00153230000000","ECCENTRICITY":"0.00018150","CLASSIFICATION_TYPE":"U","ELEMENT_SET_NO":"999","OBJECT_ID":"2022-052E","MEAN_MOTION_DOT":"0.00024170","FILE":"3554009","MEAN_ELEMENT_THEORY":"SGP4","PERIAPSIS":"538.548","REV_AT_EPOCH":"130","SITE":"AFETR","ARG_OF_PERICENTER":"49.0057","TLE_LINE1":"1 52602U 22052E   22244.91667824  .00024170  00000-0  15323-2 0  9993","DECAY_DATE":null,"OBJECT_NAME":"STARLINK-4012","MEAN_MOTION":"15.08820969","MEAN_ANOMALY":"200.8412","SEMIMAJOR_AXIS":"6917.939","NORAD_CAT_ID":"52602","EPOCH":"2022-09-01T22:00:00.999936","INCLINATION":"53.2154","APOAPSIS":"541.059","EPHEMERIS_TYPE":"0","CENTER_NAME":"EARTH","PERIOD":"95.439","GP_ID":"211506709","TIME_SYSTEM":"UTC","LAUNCH_DATE":"2022-05-14","OBJECT_TYPE":"PAYLOAD","TLE_LINE2":"2 52602  53.2154 286.6882 0001815  49.0057 200.8412 15.08820969  1306","MEAN_MOTION_DDOT":"0.0000000000000","COUNTRY_CODE":"US","RA_OF_ASC_NODE":"286.6882","REF_FRAME":"TEME"},{"CLASSIFICATION_TYPE":"U","BSTAR":"0.00161540000000","ECCENTRICITY":"0.00017660","RCS_SIZE":"LARGE","ELEMENT_SET_NO":"999","MEAN_ELEMENT_THEORY":"SGP4","FILE":"3554009","PERIAPSIS":"538.597","MEAN_MOTION_DOT":"0.00025498","OBJECT_ID":"2022-052F","OBJECT_NAME":"STARLINK-4016","DECAY_DATE":null,"SITE":"AFETR","REV_AT_EPOCH":"130","TLE_LINE1":"1 52603U 22052F   22244.91667824  .00025498  00000-0  16154-2 0  9991","ARG_OF_PERICENTER":"50.8465","NORAD_CAT_ID":"52603","SEMIMAJOR_AXIS":"6917.953","MEAN_MOTION":"15.08816121","MEAN_ANOMALY":"279.0265","PERIOD":"95.439","EPHEMERIS_TYPE":"0","CENTER_NAME":"EARTH","APOAPSIS":"541.040","INCLINATION":"53.2169","EPOCH":"2022-09-01T22:00:00.999936","OBJECT_TYPE":"PAYLOAD","TIME_SYSTEM":"UTC","LAUNCH_DATE":"2022-05-14","GP_ID":"211506280","COUNTRY_CODE":"US","RA_OF_ASC_NODE":"286.6820","REF_FRAME":"TEME","MEAN_MOTION_DDOT":"0.0000000000000","TLE_LINE2":"2 52603  53.2169 286.6820 0001766  50.8465 279.0265 15.08816121  1302"},{"RCS_SIZE":"LARGE","CLASSIFICATION_TYPE":"U","BSTAR":"0.00069758000000","ECCENTRICITY":"0.00018150","ELEMENT_SET_NO":"999","PERIAPSIS":"538.535","MEAN_ELEMENT_THEORY":"SGP4","FILE":"3554009","OBJECT_ID":"2022-052G","MEAN_MOTION_DOT":"0.00010827","DECAY_DATE":null,"ARG_OF_PERICENTER":"45.5820","TLE_LINE1":"1 52604U 22052G   22244.91667824  .00010827  00000-0  69758-3 0  9991","SITE":"AFETR","REV_AT_EPOCH":"130","OBJECT_NAME":"STARLINK-4013","MEAN_ANOMALY":"244.2825","MEAN_MOTION":"15.08825062","NORAD_CAT_ID":"52604","SEMIMAJOR_AXIS":"6917.926","APOAPSIS":"541.047","EPOCH":"2022-09-01T22:00:00.999936","INCLINATION":"53.2155","PERIOD":"95.438","CENTER_NAME":"EARTH","EPHEMERIS_TYPE":"0","LAUNCH_DATE":"2022-05-14","TIME_SYSTEM":"UTC","GP_ID":"211506566","OBJECT_TYPE":"PAYLOAD","MEAN_MOTION_DDOT":"0.0000000000000","TLE_LINE2":"2 52604  53.2155 286.6741 0001815  45.5820 244.2825 15.08825062  1301","REF_FRAME":"TEME","RA_OF_ASC_NODE":"286.6741","COUNTRY_CODE":"US"},{"RCS_SIZE":"LARGE","CLASSIFICATION_TYPE":"U","BSTAR":"0.00104710000000","ECCENTRICITY":"0.00016000","ELEMENT_SET_NO":"999","PERIAPSIS":"538.663","MEAN_ELEMENT_THEORY":"SGP4","FILE":"3554009","OBJECT_ID":"2022-052H","MEAN_MOTION_DOT":"0.00016412","DECAY_DATE":null,"ARG_OF_PERICENTER":"57.5074","TLE_LINE1":"1 52605U 22052H   22244.91667824  .00016412  00000-0  10471-2 0  9995","SITE":"AFETR","REV_AT_EPOCH":"130","OBJECT_NAME":"STARLINK-4000","MEAN_ANOMALY":"44.8150","MEAN_MOTION":"15.08832083","NORAD_CAT_ID":"52605","SEMIMAJOR_AXIS":"6917.905","APOAPSIS":"540.876","INCLINATION":"53.2157","EPOCH":"2022-09-01T22:00:00.999936","PERIOD":"95.438","CENTER_NAME":"EARTH","EPHEMERIS_TYPE":"0","LAUNCH_DATE":"2022-05-14","TIME_SYSTEM":"UTC","GP_ID":"211506423","OBJECT_TYPE":"PAYLOAD","MEAN_MOTION_DDOT":"0.0000000000000","TLE_LINE2":"2 52605  53.2157 291.6887 0001600  57.5074  44.8150 15.08832083  1303","RA_OF_ASC_NODE":"291.6887","REF_FRAME":"TEME","COUNTRY_CODE":"US"}];
